FENGYUN 1C DEB          
1 31486U 99025BWA 25066.80617058  .00066842  00000+0  10118-1 0  9998
2 31486 102.2502 189.4784 0016355 260.7663  99.1679 14.73736317927761
FENGYUN 1C DEB          
1 31487U 99025BWB 25066.43462937  .00002414  00000+0  16997-2 0  9999
2 31487 102.4088 138.0512 0122190 261.3661 109.9693 13.96126150904989
FENGYUN 1C DEB          
1 31491U 99025BWE 25063.93719079  .00004123  00000+0  21270-2 0  9997
2 31491  99.3139 319.9588 0054077 342.0844  17.8420 14.14918360912523
FENGYUN 1C DEB          
1 31492U 99025BWF 25064.85404931  .00031086  00000+0  65261-2 0  9994
2 31492  98.8504 209.8461 0083367 161.1749 199.2562 14.57355047924067
FENGYUN 1C DEB          
1 31493U 99025BWG 25052.50161708  .00001688  00000+0  12875-2 0  9994
2 31493 100.1231 331.2609 0118339 229.5835 129.4950 13.91972914557714
FENGYUN 1C DEB          
1 31495U 99025BWJ 25057.83226166  .00007799  00000+0  32147-2 0  9990
2 31495  99.1479 277.8182 0027098 293.1506  66.6818 14.26917203592679
FENGYUN 1C DEB          
1 31497U 99025BWL 25066.75186709  .00001090  00000+0  31305-3 0  9995
2 31497  98.3464  57.3297 0170816 103.4836  68.1929 14.38609018935283
FENGYUN 1C DEB          
1 31498U 99025BWM 25064.45671784  .00002418  00000+0  21270-2 0  9997
2 31498  98.4680  66.5122 0223455 186.4879 173.3369 13.75460237888518
FENGYUN 1C DEB          
1 31503U 99025BWS 25064.24316676  .00003925  00000+0  18086-2 0  9992
2 31503 100.1202 249.3976 0051656 246.0190 113.5568 14.21066656602324
FENGYUN 1C DEB          
1 31505U 99025BWU 25064.61646904  .00099795  00000+0  94655-2 0  9991
2 31505 101.9027 300.0116 0014568  68.7712 291.5046 14.92940404928634
FENGYUN 1C DEB          
1 31507U 99025BWW 25065.58732123  .00002703  00000+0  64070-3 0  9991
2 31507  98.2240 104.3283 0118787 222.1384 290.8051 14.50604752939794
FENGYUN 1C DEB          
1 31508U 99025BWX 25067.08802016  .00016088  00000+0  38201-2 0  9995
2 31508  98.6247 165.3462 0038655 110.4768 250.0583 14.53534330929471
FENGYUN 1C DEB          
1 31509U 99025BWY 25066.62110124  .00003790  00000+0  24779-2 0  9998
2 31509  99.0037 192.4252 0202939 263.1299  94.6737 13.93275418900592
FENGYUN 1C DEB          
1 31510U 99025BWZ 25066.25834671  .00001888  00000+0  83924-3 0  9993
2 31510  98.5503  73.0007 0039383  68.5171 355.0701 14.23681689924951
FENGYUN 1C DEB          
1 31511U 99025BXA 25065.65739811  .00003362  00000+0  13363-2 0  9995
2 31511  99.0476 224.1624 0109124 316.1282  43.1268 14.26206337917914
FENGYUN 1C DEB          
1 31512U 99025BXB 25066.44283828  .00003071  00000+0  83366-3 0  9994
2 31512  98.8349 312.0580 0146389 263.5405 272.0839 14.42230104614597
FENGYUN 1C DEB          
1 31513U 99025BXC 25066.69450647  .00007703  00000+0  30583-2 0  9995
2 31513  98.8586 158.0678 0030973 216.8731 143.0320 14.28763961688646
FENGYUN 1C DEB          
1 31514U 99025BXD 25064.91202803  .00004197  00000+0  20141-2 0  9991
2 31514  99.2590 313.0145 0053525 195.3546 164.6006 14.18741979653255
FENGYUN 1C DEB          
1 31516U 99025BXF 25064.54408773  .00001116  00000+0  44553-3 0  9998
2 31516  98.8048 178.9373 0149800 336.4159  82.9732 14.24625716925012
FENGYUN 1C DEB          
1 31519U 99025BXJ 25066.21856932  .00001933  00000+0  87121-3 0  9996
2 31519  98.5666  70.2319 0052909 340.1706  19.7415 14.22622314924165
FENGYUN 1C DEB          
1 31522U 99025BXM 25066.33645907  .00001036  00000+0  68457-3 0  9996
2 31522  98.7309  95.9986 0042146 266.5746  93.0600 14.03385900910629
FENGYUN 1C DEB          
1 31523U 99025BXN 25067.10923942  .00000020  00000+0  33513-4 0  9999
2 31523  98.7963 119.7215 0038331 184.7367 204.9368 14.13824694920980
FENGYUN 1C DEB          
1 31524U 99025BXP 25066.40757502  .00001098  00000+0  48589-3 0  9993
2 31524  99.3204 298.7464 0279651 180.0480 353.7214 14.06564758592091
FENGYUN 1C DEB          
1 31527U 99025BXS 25062.32523230  .00000671  00000+0  98389-3 0  9991
2 31527  98.8959 268.9146 0450064 274.4783  80.5071 13.23106050864750
FENGYUN 1C DEB          
1 31531U 99025BXW 25063.39300250  .00004465  00000+0  11466-2 0  9994
2 31531  98.4182 115.6848 0252096  33.2881 328.3877 14.33386598598728
FENGYUN 1C DEB          
1 31533U 99025BXY 25062.42260697  .00001484  00000+0  61448-3 0  9993
2 31533  98.9941 307.0969 0066974  90.9016 269.9838 14.26972226620675
FENGYUN 1C DEB          
1 31535U 99025BYA 25064.89193528  .00002332  00000+0  93253-3 0  9998
2 31535  98.0702 296.7244 0088476 281.6414  77.4849 14.27141307679098
FENGYUN 1C DEB          
1 31536U 99025BYB 25065.46451637  .00014199  00000+0  20499-2 0  9996
2 31536  98.2491 338.0917 0315917 290.0560  66.6889 14.47628058921798
FENGYUN 1C DEB          
1 31537U 99025BYC 25066.64972902  .00011117  00000+0  30607-2 0  9990
2 31537  99.2801 206.9003 0373216  35.3090 327.2196 14.13120094893164
FENGYUN 1C DEB          
1 31538U 99025BYD 25060.33652111  .00049620  00000+0  72920-2 0  9992
2 31538  98.2662 278.2792 0028919 120.2734 240.1341 14.74956426627503
FENGYUN 1C DEB          
1 31540U 99025BYF 25065.62674954  .00008059  00000+0  12709-2 0  9991
2 31540  99.0230 197.8735 0188599  81.9420 280.3128 14.61456402941902
FENGYUN 1C DEB          
1 31541U 99025BYG 25066.78636151  .00007969  00000+0  14498-2 0  9993
2 31541  98.9507 183.3631 0084716  23.8483 336.6606 14.64086773943207
FENGYUN 1C DEB          
1 31542U 99025BYH 25066.40172751  .00003251  00000+0  15084-2 0  9996
2 31542  98.7526 122.9302 0046192 296.8544  62.7914 14.20824573919568
FENGYUN 1C DEB          
1 31544U 99025BYK 25066.36119263  .00001861  00000+0  10095-2 0  9994
2 31544  98.8559 120.6476 0031421 348.1735  11.8696 14.13382752917959
FENGYUN 1C DEB          
1 31546U 99025BYM 25066.70912982  .00005260  00000+0  26805-2 0  9996
2 31546  98.2488 158.4438 0151140 222.5946 136.3425 14.10381882908372
FENGYUN 1C DEB          
1 31547U 99025BYN 25065.03347478  .00004610  00000+0  21202-2 0  9998
2 31547  99.1058 100.0556 0053848 339.4997  20.4018 14.20898986600133
FENGYUN 1C DEB          
1 31550U 99025BYR 25066.26644709  .00005268  00000+0  13961-2 0  9998
2 31550  98.3108  74.1275 0197446  37.2055 324.2628 14.38155788614204
FENGYUN 1C DEB          
1 31552U 99025BYT 25065.28619555  .00016689  00000+0  52374-2 0  9992
2 31552  98.6144 184.5162 0102117 145.0931 215.7008 14.37620775918960
FENGYUN 1C DEB          
1 31553U 99025BYU 25065.08172228  .00005843  00000+0  23962-2 0  9993
2 31553  99.0174 110.6190 0032614 192.0898 197.3566 14.27199563918888
FENGYUN 1C DEB          
1 31555U 99025BYW 25067.04696910  .00011949  00000+0  32743-2 0  9993
2 31555  99.0823   3.0870 0165179 303.0450  55.4962 14.39516604926359
FENGYUN 1C DEB          
1 31557U 99025BYY 25059.21324727  .00004476  00000+0  12049-2 0  9993
2 31557  98.2638  51.5082 0175416  59.7948 302.0483 14.39701638569604
FENGYUN 1C DEB          
1 31558U 99025BYZ 25066.94324883  .00001670  00000+0  43758-3 0  9990
2 31558  98.8231 315.0610 0214362  11.4470 359.8094 14.37936399935779
FENGYUN 1C DEB          
1 31559U 99025BZA 25065.29375080  .00014450  00000+0  31055-2 0  9999
2 31559  98.8488   0.0521 0063095 339.3864 173.0001 14.57414154936575
FENGYUN 1C DEB          
1 31560U 99025BZB 25066.91188826  .00000168  00000+0  90101-4 0  9991
2 31560  98.6253 110.0333 0121656  38.9126 322.0730 14.21120424926444
FENGYUN 1C DEB          
1 31561U 99025BZC 25066.26378216  .00000720  00000+0  49083-3 0  9990
2 31561  98.7112  74.4578 0055178 248.1123 122.7668 14.02280934912476
FENGYUN 1C DEB          
1 31562U 99025BZD 25066.62260832  .00003987  00000+0  12609-2 0  9996
2 31562  99.2264 195.5497 0058546  26.0961 334.3156 14.39806322929567
FENGYUN 1C DEB          
1 31563U 99025BZE 25066.81016681  .00007522  00000+0  13600-2 0  9990
2 31563  98.9142 196.7738 0120403 218.5045 140.7519 14.62074010944491
FENGYUN 1C DEB          
1 31565U 99025BZG 25066.70211043  .00014223  00000+0  51503-2 0  9999
2 31565 100.7213 231.1812 0056570  81.7476 279.0110 14.32658867603346
FENGYUN 1C DEB          
1 31566U 99025BZH 25065.43042696  .00006800  00000+0  24647-2 0  9996
2 31566  98.9616 113.7191 0027608 105.2103  26.2902 14.33487883924106
FENGYUN 1C DEB          
1 31567U 99025BZJ 25066.65285151  .00007257  00000+0  51754-2 0  9993
2 31567 102.3151 202.6316 0194341 259.1165  98.8058 13.89186891635149
FENGYUN 1C DEB          
1 31568U 99025BZK 25063.21747984  .00007912  00000+0  49436-2 0  9992
2 31568 102.0464 215.1053 0130210 105.6005 255.9563 14.00991725907541
FENGYUN 1C DEB          
1 31569U 99025BZL 25063.40817801  .00003975  00000+0  27517-2 0  9991
2 31569 102.6151 118.2846 0177034 319.0110  51.4594 13.92713406897311
FENGYUN 1C DEB          
1 31570U 99025BZM 25066.51058476  .00007428  00000+0  31974-2 0  9992
2 31570 102.5743 347.4719 0151767 201.8573 157.6067 14.19066406593835
FENGYUN 1C DEB          
1 31608U 99025BZN 25065.54782461  .00016285  00000+0  17678-2 0  9990
2 31608  98.3569 170.4818 0163310 222.6076 136.2371 14.78896609944668
FENGYUN 1C DEB          
1 31609U 99025BZP 25059.29079955  .00010951  00000+0  56499-2 0  9991
2 31609  99.2359  78.3529 0098908  50.8699  13.4357 14.12735461907242
FENGYUN 1C DEB          
1 31612U 99025BZS 25066.70576334  .00037194  00000+0  13413-2 0  9999
2 31612 100.3626 226.0776 0083016 307.6479  51.7237 15.25184469958481
FENGYUN 1C DEB          
1 31613U 99025BZT 25067.06460625  .00002267  00000+0  19910-2 0  9996
2 31613  98.4534 290.8408 0345982 125.2883 238.1144 13.62208161879906
FENGYUN 1C DEB          
1 31614U 99025BZU 25066.24331929  .00027368  00000+0  46773-2 0  9996
2 31614  98.9914 298.9708 0028478 149.1552 337.2141 14.68570505924272
FENGYUN 1C DEB          
1 31615U 99025BZV 25066.35935672  .00010213  00000+0  34541-2 0  9995
2 31615  99.1375 102.9700 0180412  52.3463 309.3931 14.28245030612668
FENGYUN 1C DEB          
1 31618U 99025BZY 25065.08015895  .00001028  00000+0  44312-3 0  9995
2 31618  99.4052 189.3309 0159127  41.1372 320.1671 14.20353582662654
